GLOBALSTAR M070         
1 32264U 07048B   24149.14383031 -.00000067  00000+0  20703-3 0  9997
2 32264  51.9740 221.4781 0000165 107.0899 263.6588 12.62293454766023
GLOBALSTAR M066         
1 32265U 07048C   24148.58587073 -.00000080  00000+0  13434-3 0  9995
2 32265  51.9680  85.1510 0000488  40.7146 131.0403 12.62262672768178
GLOBALSTAR M079         
1 37188U 10054A   24148.97086230 -.00000074  00000+0  16778-3 0  9994
2 37188  52.0034 232.4465 0000668 152.1626  18.8824 12.62270568627805
GLOBALSTAR M074         
1 37189U 10054B   24148.48750718 -.00000066  00000+0  21305-3 0  9993
2 37189  52.0010 233.3011 0000422 137.9489 234.7817 12.62269183628356
GLOBALSTAR M076         
1 37190U 10054C   24149.22739470 -.00000068  00000+0  19939-3 0  9992
2 37190  52.0021 231.1821 0000591 186.4275 191.9122 12.62261684628524
GLOBALSTAR M077         
1 37191U 10054D   24148.42154285 -.00000090  00000+0  75486-4 0  9994
2 37191  52.0053 190.3826 0000109 175.7363 197.5274 12.62273725628434
